[{"OBJECT_NAME":"STARLINK-5745","OBJECT_ID":"2023-020G","EPOCH":"2026-03-09T04:53:25.997568","MEAN_MOTION":15.02575392,"ECCENTRICITY":0.00014116,"INCLINATION":43.0042,"RA_OF_ASC_NODE":7.5,"ARG_OF_PERICENTER":274.2278,"MEAN_ANOMALY":85.8403,"EPHEMERIS_TYPE":0,"CLASSIFICATION_TYPE":"U","NORAD_CAT_ID":55575,"ELEMENT_SET_NO":999,"REV_AT_EPOCH":16884,"BSTAR":-0.00061955432,"MEAN_MOTION_DOT":-8.571e-5,"MEAN_MOTION_DDOT":0},{"OBJECT_NAME":"CZ-4C R\/B","OBJECT_ID":"2024-186B","EPOCH":"2026-03-09T22:51:12.491424","MEAN_MOTION":15.07425891,"ECCENTRICITY":0.00475116,"INCLINATION":97.8722,"RA_OF_ASC_NODE":96.5934,"ARG_OF_PERICENTER":122.4234,"MEAN_ANOMALY":238.1602,"EPHEMERIS_TYPE":0,"CLASSIFICATION_TYPE":"U","NORAD_CAT_ID":61572,"ELEMENT_SET_NO":999,"REV_AT_EPOCH":7672,"BSTAR":0.00027865777,"MEAN_MOTION_DOT":4.262e-5,"MEAN_MOTION_DDOT":0}]
